STARLINK-1882
1 46784U 20074AX  26060.94591926  .00137750  00000+0  16807-2 0  9997
2 46784  53.0540 312.6069 0008428  99.5005 260.6960 15.59497658296123
